#dP2019  1 19  0  0  0.00000000      96 __u+U ITR00 FIT  IAC
## 2036 518400.00000000   900.00000000 58502 0.0000000000000
+   93   C01C02C03C04C05C06C07C08C09C10C11C12C13C14C32E01E02
+        E03E04E05E07E08E09E11E12E13E14E15E18E19E21E24E25E26
+        E27E30E31E33E36G01G02G03G05G06G07G08G09G10G11G12G13
+        G14G15G16G17G18G19G20G21G22G23G24G25G26G27G28G29G30
+        G31G32R01R02R03R04R05R07R08R09R10R11R13R14R15R16R17
+        R18R19R20R21R22R23R24R26  0  0  0  0  0  0  0  0  0
++        12 12 13 12 12  8  8  8  8  8  8  8  8  8  0  5  6
++         5  5  5  6  6  5  5  6  6  5  6  5  5  5  6  6  5
++         5  5  6  7  7  4  3  4  3  3  3  3  3  3  3  4  4
++         4  4  3  3  3  3  4  4  4  3  4  4  4  3  3  4  3
++         3  4  6  5  6  6  5  5  5  5  5  5  5  5  5  0  6
++         5  6  6  5  5  5  6  9  0  0  0  0  0  0  0  0  0
%c M  cc GPS ccc cccc cccc cccc cccc ccccc ccccc ccccc ccccc
%c cc cc ccc ccc cccc cccc cccc cccc ccccc ccccc ccccc ccccc
%f  0.0000000  0.000000000  0.00000000000  0.000000000000000
%f  0.0000000  0.000000000  0.00000000000  0.000000000000000
%i    0    0    0    0      0      0      0      0         0
%i    0    0    0    0      0      0      0      0         0
/*                                                          
/*   RSA / INFORMATION & ANALYSIS CENTER (IAC) OF MCC       
/*   ULTRA-RAPID DETERMINATION                              
/* PCV:IGS14_2035 OL/AL:FES2004  NONE     YN ORB:CoN CLK:CoN
*  2019 01 19 22  0  0.00000000
PC01 -32303.726200  27075.041178   -578.491505    109.230688
PC02   4449.035219  41933.443105   1156.529709   -257.269400
PC03 -14841.209052  39506.729628     29.561054    -90.148252
PC04 -39618.671706  14351.466040   -215.131097   -207.237560
PC05  21887.532129  36036.323033   1346.116074    -79.835890
PC06 -14244.256106  38349.620464  11232.941109    294.828500
PC07 -11213.976441  23370.426419 -33107.535736    191.402021
PC08 -23646.477977  25311.620588  23913.314007     93.077303
PC09  -6234.126647  41767.171053  -2917.207174    463.214334
PC10   4323.792280  30145.162460 -28867.498151   -421.894307
PC11  -7786.605809 -14557.127033 -22447.780205   -100.229902
PC12  14386.863133 -23775.784536  -2943.935780    358.090791
PC13 -10989.342234  26766.939548  30628.505352   -494.133324
PC14  -9183.469592 -26009.302503  -3995.282367    768.145105
PC32      0.000000      0.000000      0.000000 999999.999999
PE01   9328.944225 -13416.696251  24681.875787   -524.358798
PE02  -9266.725380  13450.549762 -24684.925034     44.028462
PE03  -8383.413197  24973.534359  13482.035284   -124.062088
PE04  -4611.682996 -28890.207475   4495.203046   -203.528468
PE05 -16555.700656   6405.616110  23682.136208    122.173044
PE07  15013.866195  15837.858366 -19993.135022   -115.713502
PE08   4887.079356  28825.044795  -4591.663755   6420.135545
PE09 -15029.259738 -15731.985333  20075.760412   6553.253235
PE11 -18956.934783  -5200.741532 -22130.741153   5720.048885
PE12    -13.423599 -18479.790365 -23107.356023   5979.835323
PE13  18809.458140   5201.888874  22267.418870    381.936852
PE14  10178.551167 -24646.760721    244.602080   6457.443823
PE15    450.579259  18275.132630  23295.475766    922.497252
PE18 -19594.117249  19570.560637 -12620.590240   5593.725167
PE19   9393.408281 -23662.643121 -15098.848843     -8.996292
PE21  24973.504183   1017.390646  15857.992764   -515.275591
PE24 -25713.576915 -14537.766727   1702.161740   6277.290120
PE25 -24989.191316  -1050.350890 -15823.960051   1918.819574
PE26  26373.572627 -10616.171092   8262.642226   5000.611435
PE27  25609.732635  14679.749594  -2245.333802    546.332337
PE30  11568.138748  19842.513921 -18687.309071   5175.048738
PE31 -11215.688775 -19718.988973  19021.675538    928.356257
PE33  18254.454420 -20699.248756 -10680.798371    847.939980
PE36 -26237.199475  10992.995481  -8173.226094    757.679350
PG01  -5127.751366 -14224.893510 -22021.383889   -148.227730
PG02 -17418.073375  14885.486685  13861.965853   -117.557751
PG03 -11475.775179 -22289.396810  -8916.038287    178.260047
PG05  -6475.649434  14927.725886  20836.696659      0.860865
PG06 -25469.894146   7129.028233   2628.824114    293.506983
PG07 -19738.259456  -8028.090195  16381.247370     48.568237
PG08   5481.266471 -25616.178105  -3678.231748   -129.672561
PG09 -10782.771192 -13461.827737  20148.600797    469.659936
PG10  20360.174614   6057.816919 -16014.017339    132.668625
PG11   -487.849105 -18635.935040 -19527.498575   -672.949181
PG12   8159.306121  22784.917744 -11351.965463    274.993011
PG13 -12736.009995  23158.944063   2317.177214    -77.750189
PG14  17076.799250 -12840.487071 -15359.066660    -92.879201
PG15  -1120.505657  25615.448847  -6342.164259   -331.544420
PG16   7026.729011 -14057.970448  21163.495308    -13.778133
PG17 -15970.941988   3312.646613 -20528.869036     -2.371811
PG18   6276.579827 -16487.091669 -20292.334535     17.457841
PG19 -17366.738640  12479.925572 -16109.762812   -361.587084
PG20  22352.028080  12489.362160  -7433.104638    521.305195
PG21  21488.240263   5696.959690  15267.911873   -266.037256
PG22  -5682.917651 -21165.870117 -14803.936343   -626.541723
PG23  -4369.384313 -21707.387816  14669.394786   -200.002391
PG24    426.572166  15982.308855 -21325.136729    -61.016386
PG25  16954.882222  20595.762828  -1353.002516   -708.311188
PG26  14523.941926  -6550.737847  21263.106957    101.054056
PG27  11785.208692 -22825.646344   6040.546080    -51.973911
PG28 -19331.257446  -9441.512017 -14900.274987    762.427416
PG29   6780.150099  17109.571623  19129.822242    289.586205
PG30 -25785.674599   -854.348108   6694.742888    -38.622367
PG31  24988.124153  -8118.859972   5281.092530     64.590774
PG32  16620.900435  -6265.152819 -19675.772688   -267.149855
PR01  10950.529653  -2037.023271 -22951.385968     38.184354
PR02   2017.639433 -20613.778542 -14820.289322    350.173422
PR03  -7204.813114 -24370.094187   1947.757841     -9.575729
PR04 -12258.664551 -13470.468635  17860.349607    291.956016
PR05 -10063.356453   4340.540361  23038.056340     20.333637
PR07   7358.460322  24331.222020  -2327.934805    -56.186061
PR08  12149.211723  14210.650542 -17311.513361     19.481798
PR09  -5718.819889   9865.171025 -22809.074569     49.865677
PR10  11360.391939  12526.376134 -19087.372080     40.010734
PR11  23760.782554   8523.533290  -3509.593109    -54.027930
PR13   6727.084655  -9274.997548  22771.703455    -19.162667
PR14 -11495.467654 -12645.701065  18950.523729     35.112427
PR15 -23495.672747  -8876.853482   4447.122699     99.376217
PR16      0.000000      0.000000      0.000000 999999.999999
PR17   2134.676560 -15132.260426 -20418.233204    197.552355
PR18 -11877.629416  -2688.795021 -22400.906847     30.364985
PR19 -19662.405518  10751.721762 -12175.317915    -61.930210
PR20 -15852.778169  18823.857621   6815.715555   -366.137527
PR21  -1652.268458  14753.440903  20743.664970    -26.506957
PR22  13372.449227    762.262382  21691.325965    -64.291761
PR23  19770.767257 -14127.494988   7755.891285    204.285936
PR24  14620.156410 -19200.605978  -8256.479578   -176.215943
PR26 -16469.499879  18865.574741   4799.711743     16.710482
EOF
